IRIDIUM 7               
1 24793U 97020B   24181.63807206  .00000864  00000+0  29513-3 0  9991
2 24793  86.3967 324.6162 0002031  98.7864 261.3562 14.35270683421313
IRIDIUM 5               
1 24795U 97020D   24181.72292720  .00005856  00000+0  55556-3 0  9994
2 24795  86.3916 245.3332 0119282 318.6247  40.5988 14.88059281432962
IRIDIUM 4               
1 24796U 97020E   24181.63689861  .00000888  00000+0  29794-3 0  9996
2 24796  86.3963 321.7273 0001987  92.6503 267.4921 14.36197362421853
IRIDIUM 914             
1 24836U 97030A   24181.49520203  .00001020  00000+0  31742-3 0  9995
2 24836  86.3944 331.4304 0001163  35.6025 324.5251 14.40060978556354
IRIDIUM 16              
1 24841U 97030F   24181.55870999  .00000964  00000+0  31260-3 0  9999
2 24841  86.4041 353.4108 0003827 117.0051 243.1537 14.37950091416312
IRIDIUM 911             
1 24842U 97030G   24181.55013019  .00001251  00000+0  34123-3 0  9993
2 24842  86.4466 352.5293 0013937 184.7130 175.3944 14.46601494424082
IRIDIUM 17              
1 24870U 97034B   24181.81414588  .00000816  00000+0  26871-3 0  9990
2 24870  86.3959  22.8891 0003772  87.3177 272.8452 14.37043440412967
IRIDIUM 920             
1 24871U 97034C   24181.79027660  .00000917  00000+0  28054-3 0  9996
2 24871  86.3980   2.9520 0012302 154.9256 205.2544 14.40760365416083
